API VERSION: 1.2
API SOURCE: NASA/JPL Horizons API



*******************************************************************************
Ephemeris / API_USER Fri Apr  3 11:25:31 2026 Pasadena, USA      / Horizons
*******************************************************************************
Target body name: Venus (299)                     {source: DE441}
Center body name: Sun (10)                        {source: DE441}
Center-site name: BODY CENTER
*******************************************************************************
Start time      : A.D. 2025-Mar-20 14:55:59.9998 TDB
Stop  time      : A.D. 2025-Mar-22 14:55:59.9998 TDB
Step-size       : 60 minutes
*******************************************************************************
Center geodetic : 0.0, 0.0, 0.0                   {E-lon(deg),Lat(deg),Alt(km)}
Center cylindric: 0.0, 0.0, 0.0                   {E-lon(deg),Dxy(km),Dz(km)}
Center radii    : 695700.0, 695700.0, 695700.0 km {Equator_a, b, pole_c}
Output units    : AU-D
Calendar mode   : Mixed Julian/Gregorian
Output type     : GEOMETRIC cartesian states
Output format   : 3 (position, velocity, LT, range, range-rate)
Reference frame : Ecliptic of J2000.0
*******************************************************************************
            JDTDB,            Calendar Date (TDB),                      X,                      Y,                      Z,                     VX,                     VY,                     VZ,                     LT,                     RG,                     RR,
**************************************************************************************************************************************************************************************************************************************************************************
$$SOE
2460755.122222220, A.D. 2025-Mar-20 14:55:59.9998, -7.184737494583037E-01,  2.031505832191650E-02,  4.173454117135946E-02, -6.878237262713102E-04, -2.030740836800308E-02, -2.392544470350835E-04,  4.158208762293902E-03,  7.199715287301853E-01,  9.952050711467496E-05,
2460755.163888887, A.D. 2025-Mar-20 15:55:59.9998, -7.185019142723267E-01,  1.946890251718059E-02,  4.172454351188284E-02, -6.640872601631886E-04, -2.030806559829918E-02, -2.406331488209529E-04,  4.158232724865139E-03,  7.199756777207800E-01,  9.963101831997986E-05,
2460755.205555553, A.D. 2025-Mar-20 16:55:59.9998, -7.185290900563250E-01,  1.862271991047624E-02,  4.171448841388952E-02, -6.403502906116296E-04, -2.030869486250017E-02, -2.420114955174007E-04,  4.158256714013833E-03,  7.199798313131188E-01,  9.974139081375113E-05,
2460755.247222220, A.D. 2025-Mar-20 17:55:59.9998, -7.185552767900124E-01,  1.777651166705568E-02,  4.170437589221475E-02, -6.166128507661115E-04, -2.030929616069555E-02, -2.433894852122818E-04,  4.158280729706586E-03,  7.199839895014190E-01,  9.985162444307520E-05,
2460755.288888887, A.D. 2025-Mar-20 18:55:59.9998, -7.185804744544839E-01,  1.693027895216657E-02,  4.169420596177340E-02, -5.928749737745100E-04, -2.030986949301494E-02, -2.447671159940889E-04,  4.158304771909964E-03,  7.199881522798914E-01,  9.996171905524785E-05,
2460755.330555553, A.D. 2025-Mar-20 19:55:59.9998, -7.186046830322159E-01,  1.608402293105037E-02,  4.168397863756002E-02, -5.691366927830427E-04, -2.031041485962809E-02, -2.461443859519591E-04,  4.158328840590492E-03,  7.199923196427409E-01,  1.000716744977676E-04,
2460755.372222220, A.D. 2025-Mar-20 20:55:59.9998, -7.186279025070652E-01,  1.523774476894060E-02,  4.167369393464871E-02, -5.453980409362236E-04, -2.031093226074487E-02, -2.475212931756875E-04,  4.158352935714666E-03,  7.199964915841647E-01,  1.001814906183401E-04,
2460755.413888887, A.D. 2025-Mar-20 21:55:59.9998, -7.186501328642702E-01,  1.439144563106118E-02,  4.166335186819319E-02, -5.216590513768071E-04, -2.031142169661529E-02, -2.488978357557098E-04,  4.158377057248933E-03,  7.200006680983552E-01,  1.002911672648756E-04,
2460755.455555553, A.D. 2025-Mar-20 22:55:59.9998, -7.186713740904497E-01,  1.354512668262482E-02,  4.165295245342675E-02, -4.979197572457461E-04, -2.031188316752942E-02, -2.502740117831259E-04,  4.158401205159716E-03,  7.200048491794974E-01,  1.004007042854931E-04,
2460755.497222220, A.D. 2025-Mar-20 23:55:59.9998, -7.186916261736040E-01,  1.269878908883134E-02,  4.164249570566213E-02, -4.741801916821343E-04, -2.031231667381749E-02, -2.516498193496901E-04,  4.158425379413395E-03,  7.200090348217709E-01,  1.005101015285142E-04,
2460755.538888887, A.D. 2025-Mar-21 00:55:59.9998, -7.187108891031135E-01,  1.185243401486583E-02,  4.163198164029161E-02, -4.504403878231623E-04, -2.031272221584979E-02, -2.530252565478164E-04,  4.158449579976313E-03,  7.200132250193481E-01,  1.006193588424737E-04,
2460755.580555553, A.D. 2025-Mar-21 01:55:59.9998, -7.187291628697398E-01,  1.100606262589727E-02,  4.162141027278696E-02, -4.267003788040624E-04, -2.031309979403672E-02, -2.544003214705794E-04,  4.158473806814782E-03,  7.200174197663954E-01,  1.007284760761071E-04,
2460755.622222220, A.D. 2025-Mar-21 02:55:59.9998, -7.187464474656248E-01,  1.015967608707663E-02,  4.161078161869935E-02, -4.029601977580655E-04, -2.031344940882876E-02, -2.557750122117341E-04,  4.158498059895072E-03,  7.200216190570735E-01,  1.008374530783624E-04,
2460755.663888887, A.D. 2025-Mar-21 03:55:59.9998, -7.187627428842905E-01,  9.313275563535239E-03,  4.160009569365943E-02, -3.792198778163422E-04, -2.031377106071647E-02, -2.571493268656837E-04,  4.158522339183418E-03,  7.200258228855356E-01,  1.009462896983930E-04,
2460755.705555553, A.D. 2025-Mar-21 04:55:59.9998, -7.187780491206405E-01,  8.466862220383217E-03,  4.158935251337712E-02, -3.554794521079621E-04, -2.031406475023047E-02, -2.585232635275210E-04,  4.158546644646020E-03,  7.200300312459299E-01,  1.010549857855625E-04,
2460755.747222220, A.D. 2025-Mar-21 05:55:59.9998, -7.187923661709573E-01,  7.620437222707759E-03,  4.157855209364179E-02, -3.317389537598391E-04, -2.031433047794150E-02, -2.598968202929983E-04,  4.158570976249041E-03,  7.200342441323971E-01,  1.011635411894416E-04,
2460755.788888887, A.D. 2025-Mar-21 06:55:59.9998, -7.188056940329048E-01,  6.774001735571342E-03,  4.156769445032214E-02, -3.079984158966802E-04, -2.031456824446029E-02, -2.612699952585665E-04,  4.158595333958607E-03,  7.200384615390728E-01,  1.012719557598103E-04,
2460755.830555553, A.D. 2025-Mar-21 07:55:59.9998, -7.188180327055267E-01,  5.927556924010267E-03,  4.155677959936612E-02, -2.842578716409400E-04, -2.031477805043769E-02, -2.626427865213252E-04,  4.158619717740810E-03,  7.200426834600858E-01,  1.013802293466584E-04,
2460755.872222220, A.D. 2025-Mar-21 08:55:59.9998, -7.188293821892461E-01,  5.081103953032823E-03,  4.154580755680098E-02, -2.605173541127687E-04, -2.031495989656453E-02, -2.640151921790929E-04,  4.158644127561705E-03,  7.200469098895581E-01,  1.014883618001852E-04,
2460755.913888887, A.D. 2025-Mar-21 09:55:59.9998, -7.188397424858671E-01,  4.234643987617679E-03,  4.153477833873323E-02, -2.367768964299614E-04, -2.031511378357175E-02, -2.653872103303439E-04,  4.158668563387311E-03,  7.200511408216067E-01,  1.015963529708005E-04,
2460755.955555553, A.D. 2025-Mar-21 10:55:59.9998, -7.188491135985731E-01,  3.388178192712254E-03,  4.152369196134856E-02, -2.130365317079097E-04, -2.031523971223030E-02, -2.667588390742601E-04,  4.158693025183608E-03,  7.200553762503413E-01,  1.017042027091222E-04,
2460755.997222220, A.D. 2025-Mar-21 11:55:59.9998, -7.188574955319272E-01,  2.541707733230976E-03,  4.151254844091186E-02, -1.892962930595532E-04, -2.031533768335112E-02, -2.681300765107090E-04,  4.158717512916549E-03,  7.200596161698662E-01,  1.018119108659822E-04,
2460756.038888887, A.D. 2025-Mar-21 12:55:59.9998, -7.188648882918723E-01,  1.695233774053657E-03,  4.150134779376721E-02, -1.655562135953257E-04, -2.031540769778525E-02, -2.695009207402432E-04,  4.158742026552038E-03,  7.200638605742785E-01,  1.019194772924203E-04,
2460756.080555553, A.D. 2025-Mar-21 13:55:59.9998, -7.188712918857308E-01,  8.487574800238380E-04,  4.149009003633776E-02, -1.418163264231100E-04, -2.031544975642368E-02, -2.708713698641306E-04,  4.158766566055953E-03,  7.200681094576699E-01,  1.020269018396883E-04,
2460756.122222220, A.D. 2025-Mar-21 14:55:59.9998, -7.188767063222048E-01,  2.280015947047341E-06,  4.147877518512580E-02, -1.180766646481866E-04, -2.031546386019744E-02, -2.722414219843232E-04,  4.158791131394135E-03,  7.200723628141258E-01,  1.021341843592523E-04,
2460756.163888887, A.D. 2025-Mar-21 15:55:59.9998, -7.188811316113751E-01, -8.441974534107504E-04,  4.146740325671269E-02, -9.433726137318074E-05, -2.031545001007755E-02, -2.736110752034821E-04,  4.158815722532384E-03,  7.200766206377252E-01,  1.022413247027847E-04,
2460756.205555553, A.D. 2025-Mar-21 16:55:59.9998, -7.188845677647026E-01, -1.690673763324919E-03,  4.145597426775881E-02, -7.059814969801951E-05, -2.031540820707501E-02, -2.749803276249790E-04,  4.158840339436472E-03,  7.200808829225410E-01,  1.023483227221750E-04,
2460756.247222220, A.D. 2025-Mar-21 17:55:59.9998, -7.188870147950264E-01, -2.537147749113756E-03,  4.144448823500359E-02, -4.685936271987679E-05, -2.031533845224085E-02, -2.763491773528808E-04,  4.158864982072129E-03,  7.200851496626400E-01,  1.024551782695234E-04,
2460756.288888887, A.D. 2025-Mar-21 18:55:59.9998, -7.188884727165652E-01, -3.383618246140239E-03,  4.143294517526536E-02, -2.312093353312487E-05, -2.031524074666604E-02, -2.777176224919719E-04,  4.158889650405053E-03,  7.200894208520826E-01,  1.025618911971434E-04,
2460756.330555553, A.D. 2025-Mar-21 19:55:59.9998, -7.188889415449163E-01, -4.230084089813568E-03,  4.142134510544151E-02,  6.171047707137403E-07, -2.031511509148155E-02, -2.790856611477583E-04,  4.158914344400903E-03,  7.200936964849236E-01,  1.026684613575605E-04,
